CCSDS_OMM_VERS = 2.0
CREATION_DATE  = 
ORIGINATOR     = 

OBJECT_NAME    = UNKNOWN
OBJECT_ID      = 
CENTER_NAME    = EARTH
REF_FRAME      = TEME
TIME_SYSTEM    = UTC
MEAN_ELEMENT_THEORY = SGP/SGP4

EPOCH          = 2026-01-16T15:10:54.165504
MEAN_MOTION    = 14.07014504
ECCENTRICITY   = .008406
INCLINATION    = 98.7477
RA_OF_ASC_NODE = 262.6421
ARG_OF_PERICENTER = 300.5014
MEAN_ANOMALY   = 58.7875

EPHEMERIS_TYPE = 0
CLASSIFICATION_TYPE = U
NORAD_CAT_ID   = 81427
ELEMENT_SET_NO = 999
REV_AT_EPOCH   = 55667
BSTAR          = .26354E-3
MEAN_MOTION_DOT = .411E-5
MEAN_MOTION_DDOT = 0

CCSDS_OMM_VERS = 2.0
CREATION_DATE  = 
ORIGINATOR     = 

OBJECT_NAME    = UNKNOWN
OBJECT_ID      = 
CENTER_NAME    = EARTH
REF_FRAME      = TEME
TIME_SYSTEM    = UTC
MEAN_ELEMENT_THEORY = SGP/SGP4

EPOCH          = 2026-01-16T02:08:13.188192
MEAN_MOTION    = 13.54905530
ECCENTRICITY   = .0057627
INCLINATION    = 100.3191
RA_OF_ASC_NODE = 254.2648
ARG_OF_PERICENTER = 348.8010
MEAN_ANOMALY   = 11.1839

EPHEMERIS_TYPE = 0
CLASSIFICATION_TYPE = U
NORAD_CAT_ID   = 81438
ELEMENT_SET_NO = 999
REV_AT_EPOCH   = 59659
BSTAR          = .3337E-2
MEAN_MOTION_DOT = .2271E-4
MEAN_MOTION_DDOT = 0

CCSDS_OMM_VERS = 2.0
CREATION_DATE  = 
ORIGINATOR     = 

OBJECT_NAME    = UNKNOWN
OBJECT_ID      = 
CENTER_NAME    = EARTH
REF_FRAME      = TEME
TIME_SYSTEM    = UTC
MEAN_ELEMENT_THEORY = SGP/SGP4

EPOCH          = 2026-01-16T21:31:16.153536
MEAN_MOTION    = 12.62637383
ECCENTRICITY   = .0600543
INCLINATION    = 67.1606
RA_OF_ASC_NODE = 73.8143
ARG_OF_PERICENTER = 181.8072
MEAN_ANOMALY   = 178.0776

EPHEMERIS_TYPE = 0
CLASSIFICATION_TYPE = U
NORAD_CAT_ID   = 81439
ELEMENT_SET_NO = 999
REV_AT_EPOCH   = 26633
BSTAR          = -.15895E-4
MEAN_MOTION_DOT = -.58E-6
MEAN_MOTION_DDOT = 0

CCSDS_OMM_VERS = 2.0
CREATION_DATE  = 
ORIGINATOR     = 

OBJECT_NAME    = UNKNOWN
OBJECT_ID      = 
CENTER_NAME    = EARTH
REF_FRAME      = TEME
TIME_SYSTEM    = UTC
MEAN_ELEMENT_THEORY = SGP/SGP4

EPOCH          = 2026-01-16T06:40:03.897696
MEAN_MOTION    = 15.05368008
ECCENTRICITY   = .0020846
INCLINATION    = 66.7902
RA_OF_ASC_NODE = 250.7911
ARG_OF_PERICENTER = 92.9008
MEAN_ANOMALY   = 267.4516

EPHEMERIS_TYPE = 0
CLASSIFICATION_TYPE = U
NORAD_CAT_ID   = 81449
ELEMENT_SET_NO = 999
REV_AT_EPOCH   = 63874
BSTAR          = .30977E-2
MEAN_MOTION_DOT = .44889E-3
MEAN_MOTION_DDOT = 0

CCSDS_OMM_VERS = 2.0
CREATION_DATE  = 
ORIGINATOR     = 

OBJECT_NAME    = UNKNOWN
OBJECT_ID      = 
CENTER_NAME    = EARTH
REF_FRAME      = TEME
TIME_SYSTEM    = UTC
MEAN_ELEMENT_THEORY = SGP/SGP4

EPOCH          = 2026-01-15T14:28:12.256032
MEAN_MOTION    = 14.28606627
ECCENTRICITY   = .0144549
INCLINATION    = 98.9520
RA_OF_ASC_NODE = 293.3787
ARG_OF_PERICENTER = 260.4819
MEAN_ANOMALY   = 220.6623

EPHEMERIS_TYPE = 0
CLASSIFICATION_TYPE = U
NORAD_CAT_ID   = 81478
ELEMENT_SET_NO = 999
REV_AT_EPOCH   = 62777
BSTAR          = .80019E-3
MEAN_MOTION_DOT = .2198E-4
MEAN_MOTION_DDOT = 0

CCSDS_OMM_VERS = 2.0
CREATION_DATE  = 
ORIGINATOR     = 

OBJECT_NAME    = UNKNOWN
OBJECT_ID      = 
CENTER_NAME    = EARTH
REF_FRAME      = TEME
TIME_SYSTEM    = UTC
MEAN_ELEMENT_THEORY = SGP/SGP4

EPOCH          = 2026-01-16T03:21:58.324896
MEAN_MOTION    = 13.56530976
ECCENTRICITY   = .004415
INCLINATION    = 99.9996
RA_OF_ASC_NODE = 254.3109
ARG_OF_PERICENTER = 274.8633
MEAN_ANOMALY   = 238.6149

EPHEMERIS_TYPE = 0
CLASSIFICATION_TYPE = U
NORAD_CAT_ID   = 81488
ELEMENT_SET_NO = 999
REV_AT_EPOCH   = 60129
BSTAR          = .12089E-3
MEAN_MOTION_DOT = .39E-6
MEAN_MOTION_DDOT = 0

CCSDS_OMM_VERS = 2.0
CREATION_DATE  = 
ORIGINATOR     = 

OBJECT_NAME    = UNKNOWN
OBJECT_ID      = 
CENTER_NAME    = EARTH
REF_FRAME      = TEME
TIME_SYSTEM    = UTC
MEAN_ELEMENT_THEORY = SGP/SGP4

EPOCH          = 2026-01-16T11:48:20.797632
MEAN_MOTION    = 13.84439356
ECCENTRICITY   = .0028491
INCLINATION    = 100.3022
RA_OF_ASC_NODE = 279.4721
ARG_OF_PERICENTER = 288.7910
MEAN_ANOMALY   = 251.1398

EPHEMERIS_TYPE = 0
CLASSIFICATION_TYPE = U
NORAD_CAT_ID   = 81497
ELEMENT_SET_NO = 999
REV_AT_EPOCH   = 22110
BSTAR          = .24402E-2
MEAN_MOTION_DOT = .269E-4
MEAN_MOTION_DDOT = 0

CCSDS_OMM_VERS = 2.0
CREATION_DATE  = 
ORIGINATOR     = 

OBJECT_NAME    = UNKNOWN
OBJECT_ID      = 
CENTER_NAME    = EARTH
REF_FRAME      = TEME
TIME_SYSTEM    = UTC
MEAN_ELEMENT_THEORY = SGP/SGP4

EPOCH          = 2026-01-17T08:58:06.720960
MEAN_MOTION    = 14.47337816
ECCENTRICITY   = .0002273
INCLINATION    = 74.0488
RA_OF_ASC_NODE = 154.5053
ARG_OF_PERICENTER = 275.3195
MEAN_ANOMALY   = 84.7705

EPHEMERIS_TYPE = 0
CLASSIFICATION_TYPE = U
NORAD_CAT_ID   = 81499
ELEMENT_SET_NO = 999
REV_AT_EPOCH   = 48757
BSTAR          = .72477E-3
MEAN_MOTION_DOT = .2629E-4
MEAN_MOTION_DDOT = 0

CCSDS_OMM_VERS = 2.0
CREATION_DATE  = 
ORIGINATOR     = 

OBJECT_NAME    = UNKNOWN
OBJECT_ID      = 
CENTER_NAME    = EARTH
REF_FRAME      = TEME
TIME_SYSTEM    = UTC
MEAN_ELEMENT_THEORY = SGP/SGP4

EPOCH          = 2026-01-17T04:24:21.247200
MEAN_MOTION    = 14.13527120
ECCENTRICITY   = .0235313
INCLINATION    = 98.1987
RA_OF_ASC_NODE = 101.5026
ARG_OF_PERICENTER = 46.3819
MEAN_ANOMALY   = 315.6614

EPHEMERIS_TYPE = 0
CLASSIFICATION_TYPE = U
NORAD_CAT_ID   = 81535
ELEMENT_SET_NO = 999
REV_AT_EPOCH   = 39240
BSTAR          = .27111E-3
MEAN_MOTION_DOT = .625E-5
MEAN_MOTION_DDOT = 0

CCSDS_OMM_VERS = 2.0
CREATION_DATE  = 
ORIGINATOR     = 

OBJECT_NAME    = UNKNOWN
OBJECT_ID      = 
CENTER_NAME    = EARTH
REF_FRAME      = TEME
TIME_SYSTEM    = UTC
MEAN_ELEMENT_THEORY = SGP/SGP4

EPOCH          = 2026-01-17T09:01:10.199136
MEAN_MOTION    = 12.55914604
ECCENTRICITY   = .002576
INCLINATION    = 101.9627
RA_OF_ASC_NODE = 243.8643
ARG_OF_PERICENTER = 237.3858
MEAN_ANOMALY   = 307.3936

EPHEMERIS_TYPE = 0
CLASSIFICATION_TYPE = U
NORAD_CAT_ID   = 81536
ELEMENT_SET_NO = 999
REV_AT_EPOCH   = 55628
BSTAR          = .32258E-2
MEAN_MOTION_DOT = .484E-5
MEAN_MOTION_DDOT = 0

CCSDS_OMM_VERS = 2.0
CREATION_DATE  = 
ORIGINATOR     = 

OBJECT_NAME    = UNKNOWN
OBJECT_ID      = 
CENTER_NAME    = EARTH
REF_FRAME      = TEME
TIME_SYSTEM    = UTC
MEAN_ELEMENT_THEORY = SGP/SGP4

EPOCH          = 2026-01-12T19:36:46.499040
MEAN_MOTION    = 14.07114223
ECCENTRICITY   = .0074584
INCLINATION    = 71.0389
RA_OF_ASC_NODE = 44.9535
ARG_OF_PERICENTER = 106.1130
MEAN_ANOMALY   = 254.8216

EPHEMERIS_TYPE = 0
CLASSIFICATION_TYPE = U
NORAD_CAT_ID   = 81537
ELEMENT_SET_NO = 999
REV_AT_EPOCH   = 62483
BSTAR          = .16158E-3
MEAN_MOTION_DOT = .231E-5
MEAN_MOTION_DDOT = 0

CCSDS_OMM_VERS = 2.0
CREATION_DATE  = 
ORIGINATOR     = 

OBJECT_NAME    = UNKNOWN
OBJECT_ID      = 
CENTER_NAME    = EARTH
REF_FRAME      = TEME
TIME_SYSTEM    = UTC
MEAN_ELEMENT_THEORY = SGP/SGP4

EPOCH          = 2026-01-17T12:34:57.300384
MEAN_MOTION    = 13.31495683
ECCENTRICITY   = .0245793
INCLINATION    = 67.2929
RA_OF_ASC_NODE = 203.5589
ARG_OF_PERICENTER = 58.0640
MEAN_ANOMALY   = 335.7245

EPHEMERIS_TYPE = 0
CLASSIFICATION_TYPE = U
NORAD_CAT_ID   = 81599
ELEMENT_SET_NO = 999
REV_AT_EPOCH   = 58984
BSTAR          = .14516E-2
MEAN_MOTION_DOT = .759E-5
MEAN_MOTION_DDOT = 0

