UNKNOWN                 
1 81427U          26016.63257136  .00000411  00000+0  26354-3 0  9998
2 81427  98.7477 262.6421 0084060 300.5014  58.7875 14.07014504556675
UNKNOWN                 
1 81438U          26016.08904153  .00002271  00000+0  33370-2 0  9998
2 81438 100.3191 254.2648 0057627 348.8010  11.1839 13.54905530596595
UNKNOWN                 
1 81439U          26016.89671474 -.00000058  00000+0 -15895-4 0  9992
2 81439  67.1606  73.8143 0600543 181.8072 178.0776 12.62637383266331
UNKNOWN                 
1 81449U          26016.27782289  .00044889  00000+0  30977-2 0  9996
2 81449  66.7902 250.7911 0020846  92.9008 267.4516 15.05368008638746
UNKNOWN                 
1 81478U          26015.60291963  .00002198  00000+0  80019-3 0  9998
2 81478  98.9520 293.3787 0144549 260.4819 220.6623 14.28606627627771
UNKNOWN                 
1 81488U          26016.14025839  .00000039  00000+0  12089-3 0  9990
2 81488  99.9996 254.3109 0044150 274.8633 238.6149 13.56530976601299
UNKNOWN                 
1 81497U          26016.49190738  .00002690  00000+0  24402-2 0  9995
2 81497 100.3022 279.4721 0028491 288.7910 251.1398 13.84439356221101
UNKNOWN                 
1 81499U          26017.37368890  .00002629  00000+0  72477-3 0  9999
2 81499  74.0488 154.5053 0002273 275.3195  84.7705 14.47337816487579
UNKNOWN                 
1 81535U          26017.18357925  .00000625  00000+0  27111-3 0  9995
2 81535  98.1987 101.5026 0235313  46.3819 315.6614 14.13527120392409
UNKNOWN                 
1 81536U          26017.37581249  .00000484  00000+0  32258-2 0  9995
2 81536 101.9627 243.8643 0025760 237.3858 307.3936 12.55914604556281
UNKNOWN                 
1 81537U          26012.81720485  .00000231  00000+0  16158-3 0  9999
2 81537  71.0389  44.9535 0074584 106.1130 254.8216 14.07114223624830
UNKNOWN                 
1 81599U          26017.52427431  .00000759  00000+0  14516-2 0  9995
2 81599  67.2929 203.5589 0245793  58.0640 335.7245 13.31495683589840
